 HQ AFSPC Sgp4Prop DLL - Version: v8.0 - Build: Nov 05 2020 - Platform: Windows 64-bit                                          


EPHEMERIS GENERATED BY SGP4 USING THE WGS-72 EARTH MODEL
COORDINATE FRAME=TRUE EQUATOR AND MEAN EQUINOX OF EPOCH
USING THE FK5 MEAN OF J2000 TIME AND REFERENCE FRAME

INPUT FILE = ./input/rel14.inp
Start Time =         0.0000 min from epoch
Stop Time  =      1440.0000 min from epoch
Step size  =       360.0000 min


     TSINCE (MIN)     N (REVS/DAY)          ECC (-)        INC (DEG)       NODE (DEG)      OMEGA (DEG)         MA (DEG)


 1 90021U RELEAS14 00051.47568104 +.00000184  00000 0  00000 0 0 0814                                                                                                                                                                                                                                                                                                                                                                                                                                                            
 2 90021   0.0222 182.4923 0000720  45.6036 131.8822  1.0027132801199                                                                                                                                                                                                                                                                                                                                                                                                                                                            

         0.0000000        1.0026760    42165.9172312        0.0000720      131.8822000      182.4923000        0.0222000
       360.0000000        1.0026772    42165.8832525        0.0000720      222.1234477      182.4889464        0.0222525
       720.0000000        1.0026784    42165.8492737        0.0000720      312.3648045      182.4855928        0.0223049
      1080.0000000        1.0026797    42165.8152949        0.0000720       42.6062704      182.4822392        0.0223574
      1440.0000000        1.0026809    42165.7813161        0.0000720      132.8478453      182.4788856        0.0224098


 1 90022U RELEAS14 00051.59174492 +.00000136  00000 0  00000 0 0 0733                                                                                                                                                                                                                                                                                                                                                                                                                                                            
 2 90022   4.5701  71.6069 0014162  60.8451 299.2453  0.9654587100306                                                                                                                                                                                                                                                                                                                                                                                                                                                            

         0.0000000        0.9654249    43243.7119857        0.0014162      299.2453000       71.6069000        4.5701000
       360.0000000        0.9654253    43243.7017553        0.0014162       26.1334406       71.6055856        4.5706099
       720.0000000        0.9654257    43243.6874246        0.0014162      113.0216059       71.6042713        4.5711198
      1080.0000000        0.9654263    43243.6696451        0.0014162      199.9098322       71.6029569        4.5716298
      1440.0000000        0.9654271    43243.6482271        0.0014162      286.7981067       71.6016425        4.5721397


 1 90023U RELEAS14 00051.45013393 +.00000064  00000 0  00000 0 0 0221                                                                                                                                                                                                                                                                                                                                                                                                                                                            
 2 90023  54.9132 182.6983 0017768 176.8444 183.1487  2.0055852401395                                                                                                                                                                                                                                                                                                                                                                                                                                                            

         0.0000000        2.0055861    26560.7970143        0.0017768      183.1487000      182.6983000       54.9132000
       360.0000000        2.0055861    26560.7970143        0.0017768        3.6503119      182.6883671       54.9132068
       720.0000000        2.0055861    26560.7970143        0.0017768      184.1519238      182.6784342       54.9132137
      1080.0000000        2.0055861    26560.7970143        0.0017768        4.6535356      182.6685013       54.9132205
      1440.0000000        2.0055861    26560.7970143        0.0017768      185.1551475      182.6585684       54.9132273


 1 90024U RELEAS14 00051.03935584 +.00001327  00000 0  00000 0 0 0882                                                                                                                                                                                                                                                                                                                                                                                                                                                            
 2 90024  64.7717 195.4038 6033327 269.3020  18.6110  2.0061535803847                                                                                                                                                                                                                                                                                                                                                                                                                                                            

         0.0000000        2.0062379    26555.0437517        0.6033327       18.6110000      195.4038000       64.7717000
       360.0000000        2.0062422    26555.0058685        0.6033315      199.1687306      195.3858104       64.7716970
       720.0000000        2.0062465    26554.9679924        0.6033304       19.7268476      195.3678207       64.7716941
      1080.0000000        2.0062508    26554.9301232        0.6033292      200.2853509      195.3498311       64.7716911
      1440.0000000        2.0062550    26554.8922614        0.6033280       20.8442404      195.3318414       64.7716882


 1 90025U RELEAS14 00051.03935584 +.00001327  00000 0  00000 0 0 0882                                                                                                                                                                                                                                                                                                                                                                                                                                                            
 2 90025  64.7717 195.4038 6833327 269.3020  18.6110  2.0061535803847                                                                                                                                                                                                                                                                                                                                                                                                                                                            

         0.0000000        2.0062634    26554.8182086        0.6833327       18.6110000      195.4038000       64.7717000
       360.0000000        2.0062693    26554.7662747        0.6833315      199.1690434      195.3782191       64.7716966
       720.0000000        2.0062752    26554.7143453        0.6833303       19.7276165      195.3526381       64.7716932
      1080.0000000        2.0062811    26554.6624201        0.6833290      200.2867192      195.3270572       64.7716899
      1440.0000000        2.0062870    26554.6104999        0.6833278       20.8463516      195.3014763       64.7716865


 1 90026U RELEAS14 00051.03935584 +.00001327  00000 0  00000 0 0 0882                                                                                                                                                                                                                                                                                                                                                                                                                                                            
 2 90026  64.7717 195.4038 7233327 269.3020  18.6110  2.0061535803847                                                                                                                                                                                                                                                                                                                                                                                                                                                            

